{"type": "FeatureCollection", "features": [ {"type": "Feature", "properties": {"norad_id": 38220, "name": "COSMOS 2251 DEB", "group": "cosmos-2251-debris", "lat": -70.61786701428991, "lon": -87.41280476021569, "alt_km": 594.4446499505339, "timestamp": "2025-12-27T18:38:03.876053+00:00", "meta": {"OBJECT_NAME": "COSMOS 2251 DEB", "OBJECT_ID": "1993-036BTL", "EPOCH": "2025-12-25T02:47:20.409216", "MEAN_MOTION": 14.93616578, "ECCENTRICITY": 0.00060459, "INCLINATION": 74.0136, "RA_OF_ASC_NODE": 43.3689, "ARG_OF_PERICENTER": 13.8896, "MEAN_ANOMALY": 346.2452, "EPHEMERIS_TYPE": 0, "CLASSIFICATION_TYPE": "U", "NORAD_CAT_ID": 38220, "ELEMENT_SET_NO": 999, "REV_AT_EPOCH": 71555, "BSTAR": 0.0029073609, "MEAN_MOTION_DOT": 0.00030813, "MEAN_MOTION_DDOT": 0}, "tle": {"line1": "1 38220U 93036BTL 25359.11620844  .00030813  00000+0  29074-2 0  9994", "line2": "2 38220  74.0136  43.3689 0006045  13.8896 346.2452 14.93616578715550"}}, "geometry": {"type": "Point", "coordinates": [-87.41280476021569, -70.61786701428991]}}, {"type": "Feature", "properties": {"norad_id": 38479, "name": "COSMOS 2251 DEB", "group": "cosmos-2251-debris", "lat": -59.69724644621948, "lon": 127.12862873942171, "alt_km": 720.1513906545406, "timestamp": "2025-12-27T18:38:03.876064+00:00", "meta": {"OBJECT_NAME": "COSMOS 2251 DEB", "OBJECT_ID": "1993-036BTP", "EPOCH": "2025-12-27T04:45:05.285376", "MEAN_MOTION": 14.38480276, "ECCENTRICITY": 0.00839667, "INCLINATION": 74.007, "RA_OF_ASC_NODE": 157.5859, "ARG_OF_PERICENTER": 263.7658, "MEAN_ANOMALY": 277.4842, "EPHEMERIS_TYPE": 0, "CLASSIFICATION_TYPE": "U", "NORAD_CAT_ID": 38479, "ELEMENT_SET_NO": 999, "REV_AT_EPOCH": 64895, "BSTAR": 0.0028753615, "MEAN_MOTION_DOT": 9.134e-05, "MEAN_MOTION_DDOT": 0}, "tle": {"line1": "1 38479U 93036BTP 25361.19797784  .00009134  00000+0  28754-2 0  9995", "line2": "2 38479  74.0070 157.5859 0083966 263.7658 277.4842 14.38480276648959"}}, "geometry": {"type": "Point", "coordinates": [127.12862873942171, -59.69724644621948]}}, {"type": "Feature", "properties": {"norad_id": 38481, "name": "COSMOS 2251 DEB", "group": "cosmos-2251-debris", "lat": 8.460135143179265, "lon": -15.976993910463262, "alt_km": 908.3382276784514, "timestamp": "2025-12-27T18:38:03.876074+00:00", "meta": {"OBJECT_NAME": "COSMOS 2251 DEB", "OBJECT_ID": "1993-036BTR", "EPOCH": "2025-12-27T04:49:22.436832", "MEAN_MOTION": 13.9490461, "ECCENTRICITY": 0.02348087, "INCLINATION": 73.9335, "RA_OF_ASC_NODE": 342.5605, "ARG_OF_PERICENTER": 280.1991, "MEAN_ANOMALY": 77.2735, "EPHEMERIS_TYPE": 0, "CLASSIFICATION_TYPE": "U", "NORAD_CAT_ID": 38481, "ELEMENT_SET_NO": 999, "REV_AT_EPOCH": 59262, "BSTAR": 0.0020132501, "MEAN_MOTION_DOT": 3.379e-05, "MEAN_MOTION_DDOT": 0}, "tle": {"line1": "1 38481U 93036BTR 25361.20095413  .00003379  00000+0  20133-2 0  9998", "line2": "2 38481  73.9335 342.5605 0234808 280.1991  77.2735 13.94904610592628"}}, "geometry": {"type": "Point", "coordinates": [-15.976993910463262, 8.460135143179265]}}, {"type": "Feature", "properties": {"norad_id": 38483, "name": "COSMOS 2251 DEB", "group": "cosmos-2251-debris", "lat": 33.44446714241833, "lon": 154.09719466270735, "alt_km": 752.8315268116676, "timestamp": "2025-12-27T18:38:03.876084+00:00", "meta": {"OBJECT_NAME": "COSMOS 2251 DEB", "OBJECT_ID": "1993-036BTT", "EPOCH": "2025-12-26T16:45:49.044384", "MEAN_MOTION": 14.28835727, "ECCENTRICITY": 0.010984, "INCLINATION": 74.2617, "RA_OF_ASC_NODE": 346.76, "ARG_OF_PERICENTER": 87.4752, "MEAN_ANOMALY": 273.8967, "EPHEMERIS_TYPE": 0, "CLASSIFICATION_TYPE": "U", "NORAD_CAT_ID": 38483, "ELEMENT_SET_NO": 999, "REV_AT_EPOCH": 63677, "BSTAR": 0.00084663687, "MEAN_MOTION_DOT": 2.255e-05, "MEAN_MOTION_DDOT": 0}, "tle": {"line1": "1 38483U 93036BTT 25360.69848431  .00002255  00000+0  84664-3 0  9990", "line2": "2 38483  74.2617 346.7600 0109840  87.4752 273.8967 14.28835727636774"}}, "geometry": {"type": "Point", "coordinates": [154.09719466270735, 33.44446714241833]}}, {"type": "Feature", "properties": {"norad_id": 38486, "name": "COSMOS 2251 DEB", "group": "cosmos-2251-debris", "lat": 18.966255195180793, "lon": -178.9436920279425, "alt_km": 639.0473075892978, "timestamp": "2025-12-27T18:38:03.876094+00:00", "meta": {"OBJECT_NAME": "COSMOS 2251 DEB", "OBJECT_ID": "1993-036BTW", "EPOCH": "2025-12-27T06:19:21.484704", "MEAN_MOTION": 14.73649292, "ECCENTRICITY": 0.0030924, "INCLINATION": 73.9408, "RA_OF_ASC_NODE": 176.3807, "ARG_OF_PERICENTER": 318.9182, "MEAN_ANOMALY": 220.2671, "EPHEMERIS_TYPE": 0, "CLASSIFICATION_TYPE": "U", "NORAD_CAT_ID": 38486, "ELEMENT_SET_NO": 999, "REV_AT_EPOCH": 75648, "BSTAR": 0.0026536, "MEAN_MOTION_DOT": 0.00017447, "MEAN_MOTION_DDOT": 0}, "tle": {"line1": "1 38486U 93036BTW 25361.26344311  .00017447  00000+0  26536-2 0  9997", "line2": "2 38486  73.9408 176.3807 0030924 318.9182 220.2671 14.73649292756481"}}, "geometry": {"type": "Point", "coordinates": [-178.9436920279425, 18.966255195180793]}}, {"type": "Feature", "properties": {"norad_id": 38487, "name": "COSMOS 2251 DEB", "group": "cosmos-2251-debris", "lat": 36.62578512451674, "lon": 14.628644316876313, "alt_km": 517.3973598515631, "timestamp": "2025-12-27T18:38:03.876104+00:00", "meta": {"OBJECT_NAME": "COSMOS 2251 DEB", "OBJECT_ID": "1993-036BTX", "EPOCH": "2025-12-21T18:32:44.643552", "MEAN_MOTION": 15.1793295, "ECCENTRICITY": 0.00206459, "INCLINATION": 73.9735, "RA_OF_ASC_NODE": 14.8819, "ARG_OF_PERICENTER": 185.3276, "MEAN_ANOMALY": 174.7704, "EPHEMERIS_TYPE": 0, "CLASSIFICATION_TYPE": "U", "NORAD_CAT_ID": 38487, "ELEMENT_SET_NO": 999, "REV_AT_EPOCH": 66937, "BSTAR": 0.0019265154, "MEAN_MOTION_DOT": 0.00039496, "MEAN_MOTION_DDOT": 0}, "tle": {"line1": "1 38487U 93036BTX 25355.77273893  .00039496  00000+0  19265-2 0  9992", "line2": "2 38487  73.9735  14.8819 0020645 185.3276 174.7704 15.17932950669379"}}, "geometry": {"type": "Point", "coordinates": [14.628644316876313, 36.62578512451674]}}, {"type": "Feature", "properties": {"norad_id": 39109, "name": "COSMOS 2251 DEB", "group": "cosmos-2251-debris", "lat": -62.56856595633555, "lon": 162.44397807798575, "alt_km": 623.4519146670236, "timestamp": "2025-12-27T18:38:03.876114+00:00", "meta": {"OBJECT_NAME": "COSMOS 2251 DEB", "OBJECT_ID": "1993-036BTY", "EPOCH": "2025-12-26T05:56:43.253376", "MEAN_MOTION": 14.70799754, "ECCENTRICITY": 0.0059603, "INCLINATION": 74.0417, "RA_OF_ASC_NODE": 198.8655, "ARG_OF_PERICENTER": 299.4353, "MEAN_ANOMALY": 182.2563, "EPHEMERIS_TYPE": 0, "CLASSIFICATION_TYPE": "U", "NORAD_CAT_ID": 39109, "ELEMENT_SET_NO": 999, "REV_AT_EPOCH": 65372, "BSTAR": 0.00047481, "MEAN_MOTION_DOT": 2.947e-05, "MEAN_MOTION_DDOT": 0}, "tle": {"line1": "1 39109U 93036BTY 25360.24772284  .00002947  00000+0  47481-3 0  9993", "line2": "2 39109  74.0417 198.8655 0059603 299.4353 182.2563 14.70799754653720"}}, "geometry": {"type": "Point", "coordinates": [162.44397807798575, -62.56856595633555]}}, {"type": "Feature", "properties": {"norad_id": 39110, "name": "COSMOS 2251 DEB", "group": "cosmos-2251-debris", "lat": -16.89536176697304, "lon": -142.87453990305312, "alt_km": 627.2498723871913, "timestamp": "2025-12-27T18:38:03.876125+00:00", "meta": {"OBJECT_NAME": "COSMOS 2251 DEB", "OBJECT_ID": "1993-036BTZ", "EPOCH": "2025-12-17T22:04:59.920608", "MEAN_MOTION": 14.72312711, "ECCENTRICITY": 0.00972569, "INCLINATION": 73.9594, "RA_OF_ASC_NODE": 51.3772, "ARG_OF_PERICENTER": 282.7235, "MEAN_ANOMALY": 255.0933, "EPHEMERIS_TYPE": 0, "CLASSIFICATION_TYPE": "U", "NORAD_CAT_ID": 39110, "ELEMENT_SET_NO": 999, "REV_AT_EPOCH": 62560, "BSTAR": 0.00028872963, "MEAN_MOTION_DOT": 1.929e-05, "MEAN_MOTION_DDOT": 0}, "tle": {"line1": "1 39110U 93036BTZ 25351.92013797  .00001929  00000+0  28873-3 0  9990", "line2": "2 39110  73.9594  51.3772 0097256 282.7235 255.0933 14.72312711625601"}}, "geometry": {"type": "Point", "coordinates": [-142.87453990305312, -16.89536176697304]}}, {"type": "Feature", "properties": {"norad_id": 39111, "name": "COSMOS 2251 DEB", "group": "cosmos-2251-debris", "lat": -44.69472530273494, "lon": -6.684356630317422, "alt_km": 513.4954213634237, "timestamp": "2025-12-27T18:38:03.876135+00:00", "meta": {"OBJECT_NAME": "COSMOS 2251 DEB", "OBJECT_ID": "1993-036BUA", "EPOCH": "2025-12-01T22:58:55.551360", "MEAN_MOTION": 15.11912111, "ECCENTRICITY": 0.00109111, "INCLINATION": 74.0059, "RA_OF_ASC_NODE": 63.5328, "ARG_OF_PERICENTER": 39.1207, "MEAN_ANOMALY": 321.0773, "EPHEMERIS_TYPE": 0, "CLASSIFICATION_TYPE": "U", "NORAD_CAT_ID": 39111, "ELEMENT_SET_NO": 999, "REV_AT_EPOCH": 8982, "BSTAR": 0.0056424119, "MEAN_MOTION_DOT": 0.00098096, "MEAN_MOTION_DDOT": 0}, "tle": {"line1": "1 39111U 93036BUA 25335.95758740  .00098096  00000+0  56424-2 0  9993", "line2": "2 39111  74.0059  63.5328 0010911  39.1207 321.0773 15.11912111 89826"}}, "geometry": {"type": "Point", "coordinates": [-6.684356630317422, -44.69472530273494]}}, {"type": "Feature", "properties": {"norad_id": 39546, "name": "COSMOS 2251 DEB", "group": "cosmos-2251-debris", "lat": -57.613983806703715, "lon": -46.5694751259544, "alt_km": 568.6094822154864, "timestamp": "2025-12-27T18:38:03.876146+00:00", "meta": {"OBJECT_NAME": "COSMOS 2251 DEB", "OBJECT_ID": "1993-036BUC", "EPOCH": "2025-12-25T23:43:29.901792", "MEAN_MOTION": 14.92423916, "ECCENTRICITY": 0.00441766, "INCLINATION": 73.9984, "RA_OF_ASC_NODE": 110.1282, "ARG_OF_PERICENTER": 268.5, "MEAN_ANOMALY": 91.1122, "EPHEMERIS_TYPE": 0, "CLASSIFICATION_TYPE": "U", "NORAD_CAT_ID": 39546, "ELEMENT_SET_NO": 999, "REV_AT_EPOCH": 64634, "BSTAR": 0.0015434889, "MEAN_MOTION_DOT": 0.00016116, "MEAN_MOTION_DDOT": 0}, "tle": {"line1": "1 39546U 93036BUC 25359.98854053  .00016116  00000+0  15435-2 0  9998", "line2": "2 39546  73.9984 110.1282 0044176 268.5000  91.1122 14.92423916646347"}}, "geometry": {"type": "Point", "coordinates": [-46.5694751259544, -57.613983806703715]}}]}